*******************************************************************************
 Revised: July 31, 2013                  Earth                              399
 
 GEOPHYSICAL PROPERTIES (revised Aug 15, 2018):
  Vol. Mean Radius (km)    = 6371.01+-0.02   Mass x10^24 (kg)= 5.97219+-0.0006
  Equ. radius, km          = 6378.137        Mass layers:
  Polar axis, km           = 6356.752          Atmos         = 5.1   x 10^18 kg
  Flattening               = 1/298.257223563   oceans        = 1.4   x 10^21 kg
  Density, g/cm^3          = 5.51              crust         = 2.6   x 10^22 kg
  J2 (IERS 2010)           = 0.00108262545     mantle        = 4.043 x 10^24 kg
  g_p, m/s^2  (polar)      = 9.8321863685      outer core    = 1.835 x 10^24 kg
  g_e, m/s^2  (equatorial) = 9.7803267715      inner core    = 9.675 x 10^22 kg
  g_o, m/s^2               = 9.82022         Fluid core rad  = 3480 km
  GM, km^3/s^2             = 398600.435436   Inner core rad  = 1215 km
  GM 1-sigma, km^3/s^2     =      0.0014     Escape velocity = 11.186 km/s
  Rot. Rate (rad/s)        = 0.00007292115   Surface area:
  Mean sidereal day, hr    = 23.9344695944     land          = 1.48 x 10^8 km
  Mean solar day 2000.0, s = 86400.002         sea           = 3.62 x 10^8 km
  Mean solar day 1820.0, s = 86400.0         Love no., k2    = 0.299
  Moment of inertia        = 0.3308          Atm. pressure   = 1.0 bar
  Mean temperature, K      = 270             Volume, km^3    = 1.08321 x 10^12
  Mean effect. IR temp, K  = 255             Magnetic moment = 0.61 gauss Rp^3
  Geometric albedo         = 0.367           Vis. mag. V(1,0)= -3.86
  Solar Constant (W/m^2)   = 1367.6 (mean), 1414 (perihelion), 1322 (aphelion)
 HELIOCENTRIC ORBIT CHARACTERISTICS:
  Obliquity to orbit, deg  = 23.4392911  Sidereal orb period  = 1.0000174 y
  Orbital speed, km/s      = 29.79       Sidereal orb period  = 365.25636 d
  Mean daily motion, deg/d = 0.9856474   Hill's sphere radius = 234.9       
*******************************************************************************
 
 
*******************************************************************************
Ephemeris / WWW_USER Thu Dec 19 17:07:35 2019 Pasadena, USA      / Horizons    
*******************************************************************************
Target body name: Earth (399)                     {source: DE431mx}
Center body name: Solar System Barycenter (0)     {source: DE431mx}
Center-site name: BODY CENTER
*******************************************************************************
Start time      : A.D. 2005-Dec-19 00:00:00.0000 TDB
Stop  time      : A.D. 2020-Jan-18 00:00:00.0000 TDB
Step-size       : 1440 minutes
*******************************************************************************
Center geodetic : 0.00000000,0.00000000,0.0000000 {E-lon(deg),Lat(deg),Alt(km)}
Center cylindric: 0.00000000,0.00000000,0.0000000 {E-lon(deg),Dxy(km),Dz(km)}
Center radii    : (undefined)                                                  
Output units    : AU-D                                                         
Output type     : GEOMETRIC cartesian states
Output format   : 2 (position and velocity)
Reference frame : ICRF/J2000.0                                                 
Coordinate systm: Ecliptic and Mean Equinox of Reference Epoch                 
*******************************************************************************
            JDTDB,            Calendar Date (TDB),        delta-T,                      X,                      Y,                      Z,                     VX,                     VY,                     VZ,
******************************************************************************************************************************************************************************************************************
$$SOE
2454680.500000000, A.D. 2008-Aug-02 00:00:00.0000,      65.183225,  6.506170025437661E-01, -7.730128576068421E-01, -3.368276205223172E-05,  1.290554380556081E-02,  1.098922238983930E-02,  5.681014271217780E-07,
2454681.500000000, A.D. 2008-Aug-03 00:00:00.0000,      65.183200,  6.634289650665067E-01, -7.619135034763953E-01, -3.312207821379994E-05,  1.271772823365232E-02,  1.120891374704284E-02,  5.467216895583279E-07,
2454682.500000000, A.D. 2008-Aug-04 00:00:00.0000,      65.183176,  6.760511793121012E-01, -7.505961893143176E-01, -3.260161370387254E-05,  1.252607345277482E-02,  1.142512869075971E-02,  4.885291335584644E-07,
2454683.500000000, A.D. 2008-Aug-05 00:00:00.0000,      65.183152,  6.884798835542549E-01, -7.390644272743304E-01, -3.215528358124278E-05,  1.233073297753937E-02,  1.163780099196697E-02,  3.995773636687793E-07,
2454684.500000000, A.D. 2008-Aug-06 00:00:00.0000,      65.183127,  7.007114638998324E-01, -7.273217815603381E-01, -3.181036555100046E-05,  1.213184783536103E-02,  1.184689116520197E-02,  2.869068200856356E-07,
2454685.500000000, A.D. 2008-Aug-07 00:00:00.0000,      65.183103,  7.127424393910538E-01, -7.153718465514599E-01, -3.158699815939188E-05,  1.192954265559775E-02,  1.205237680374997E-02,  1.576353304167691E-07,
2454686.500000000, A.D. 2008-Aug-08 00:00:00.0000,      65.183080,  7.245694456190303E-01, -7.032182339717489E-01, -3.149839756721483E-05,  1.172392627162797E-02,  1.225424449900468E-02,  1.843395901334641E-08,
2454687.500000000, A.D. 2008-Aug-09 00:00:00.0000,      65.183056,  7.361892203151932E-01, -6.908645667663170E-01, -3.155141933990885E-05,  1.151509472614355E-02,  1.245248459060963E-02, -1.246544740989923E-07,
2454688.500000000, A.D. 2008-Aug-10 00:00:00.0000,      65.183033,  7.475985923631854E-01, -6.783144767854963E-01, -3.174717662260927E-05,  1.130313485345288E-02,  1.264708872637848E-02, -2.661672776455076E-07,
2454689.500000000, A.D. 2008-Aug-11 00:00:00.0000,      65.183010,  7.587944741597092E-01, -6.655716037615151E-01, -3.208154511611224E-05,  1.108812724944017E-02,  1.283804958636132E-02, -4.010615843911420E-07,
2454690.500000000, A.D. 2008-Aug-12 00:00:00.0000,      65.182987,  7.697738563602541E-01, -6.526395938168056E-01, -3.254549209406711E-05,  1.087014800398909E-02,  1.302536196017104E-02, -5.245362226919174E-07,
2454691.500000000, A.D. 2008-Aug-13 00:00:00.0000,      65.182964,  7.805338036227066E-01, -6.395220965465652E-01, -3.312524817183349E-05,  1.064926894505068E-02,  1.320902439635446E-02, -6.319051631264921E-07,
2454692.500000000, A.D. 2008-Aug-14 00:00:00.0000,      65.182942,  7.910714498386532E-01, -6.262227604695645E-01, -3.380240005453109E-05,  1.042555638587798E-02,  1.338904069912775E-02, -7.185731675321296E-07,
2454693.500000000, A.D. 2008-Aug-15 00:00:00.0000,      65.182919,  8.013839914396852E-01, -6.127452273464039E-01, -3.455402524525511E-05,  1.019906858191166E-02,  1.356542058575987E-02, -7.801483992099121E-07,
2454694.500000000, A.D. 2008-Aug-16 00:00:00.0000,      65.182897,  8.114686776968486E-01, -5.990931265230179E-01, -3.535301484547741E-05,  9.969852362003980E-03,  1.373817888643219E-02, -8.127061014766259E-07,
2454695.500000000, A.D. 2008-Aug-17 00:00:00.0000,      65.182876,  8.213227975426589E-01, -5.852700709935977E-01, -3.616873000222589E-05,  9.737939691741649E-03,  1.390733286018934E-02, -8.131861477062440E-07,
2454696.500000000, A.D. 2008-Aug-18 00:00:00.0000,      65.182855,  8.309436633270768E-01, -5.712796571290177E-01, -3.696810065984797E-05,  9.503345150692169E-03,  1.407289758213810E-02, -7.798671103960438E-07,
2454697.500000000, A.D. 2008-Aug-19 00:00:00.0000,      65.182834,  8.403285929237176E-01, -5.571254698030121E-01, -3.771719863369167E-05,  9.266065300726359E-03,  1.423487988818560E-02, -7.128231011034239E-07,
2454698.500000000, A.D. 2008-Aug-20 00:00:00.0000,      65.182813,  8.494748924380526E-01, -5.428110938996138E-01, -3.838321387273902E-05,  9.026080582399770E-03,  1.439327186203360E-02, -6.142561550255656E-07,
2454699.500000000, A.D. 2008-Aug-21 00:00:00.0000,      65.182793,  8.583798421167924E-01, -5.283401320595260E-01, -3.893666363682986E-05,  8.783359770340914E-03,  1.454804506684780E-02, -4.886192177514580E-07,
2454700.500000000, A.D. 2008-Aug-22 00:00:00.0000,      65.182773,  8.670406877708096E-01, -5.137162273860529E-01, -3.935360345941087E-05,  8.537866410288510E-03,  1.469914652521497E-02, -3.424960031113108E-07,
2454701.500000000, A.D. 2008-Aug-23 00:00:00.0000,      65.182754,  8.754546392578013E-01, -4.989430890630763E-01, -3.961760295891927E-05,  8.289566350161958E-03,  1.484649695373714E-02, -1.842575088711834E-07,
2454702.500000000, A.D. 2008-Aug-24 00:00:00.0000,      65.182735,  8.836188766996459E-01, -4.840245185848991E-01, -3.972128591757632E-05,  8.038435569729606E-03,  1.498999128457841E-02, -2.354216761035763E-08,
2454703.500000000, A.D. 2008-Aug-25 00:00:00.0000,      65.182716,  8.915305644611367E-01, -4.689644343783075E-01, -3.966727983561595E-05,  7.784467813499916E-03,  1.512950134495485E-02,  1.294005648662023E-07,
2454704.500000000, A.D. 2008-Aug-26 00:00:00.0000,      65.182698,  8.991868725218759E-01, -4.537668926598714E-01, -3.946844927167493E-05,  7.527681678151430E-03,  1.526488073693739E-02,  2.644841309226710E-07,
2454705.500000000, A.D. 2008-Aug-27 00:00:00.0000,      65.182680,  9.065850044323520E-01, -4.384361022120989E-01, -3.914730391992944E-05,  7.268126550333489E-03,  1.539597216201202E-02,  3.726554987814174E-07,
2454706.500000000, A.D. 2008-Aug-28 00:00:00.0000,      65.182663,  9.137222301743265E-01, -4.229764305709912E-01, -3.873451318253641E-05,  7.005886239662145E-03,  1.552261722883181E-02,  4.467938027630258E-07,
2454707.500000000, A.D. 2008-Aug-29 00:00:00.0000,      65.182646,  9.205959208721238E-01, -4.073923994493807E-01, -3.826656646663932E-05,  6.741078803100822E-03,  1.564466794283869E-02,  4.824893389188564E-07,
2454708.500000000, A.D. 2008-Aug-30 00:00:00.0000,      65.182630,  9.272035809392676E-01, -3.916886686062527E-01, -3.778279746137764E-05,  6.473851508684093E-03,  1.576199791092236E-02,  4.785031206506951E-07,
